[Satellite]
VERSION=1.1
NAME=SL-3 R/B
NICKNAME=SL-3 R/B
TLE1=1 16111U 85090B   20158.02340517  .00005109  00000-0  55001-4 0  9990
TLE2=2 16111  97.4796 330.3267 0010012 322.9637  37.0930 15.64175024913240
STATUS=0
